#dP2021  4  9 18  0  0.00000000      96 __u+U ITR00 EXT  IAC
## 2152 496800.00000000   900.00000000 59313 0.7500000000000
+  116   C06C07C08C09C10C11C12C13C14C16C19C20C21C22C23C24C25
+        C26C27C28C29C30C32C33C34C35C36C37C38C39C40C41C42C43
+        C44C45C46E01E02E03E04E05E07E08E09E11E12E13E14E15E18
+        E19E21E24E25E26E27E30E31E33E36G01G02G03G04G05G06G07
+        G08G09G10G11G12G13G14G15G16G17G18G19G20G21G22G23G24
+        G25G26G27G29G30G31G32J01J02J03R01R02R03R04R05R07R08
+        R09R11R12R13R14R15R16R17R18R19R20R21R22R24  0  0  0
++         8  9 10 10 10 14 10  9  9 10  9  8 10  9 10  9  9
++         8  9  9 10 10 10  9  8  9 10  8  9 11 10  8  8  7
++        10  9  8  8  8  8  8  8  8  7  8  8  7  9  8  9  7
++         7  8  8  8  8  8  8  7  9  7  9  8  7  7  7  6  8
++         8  8  8  7  8  7  7  6  7  7  8  6  8  7  7  6  8
++         6  8  7  8  7  8  8 11 11 10  8  8  7  8  6  9  9
++        10  9  9  9  8  9  8  9  8  9  9  8 10  7  0  0  0
%c M  cc GPS ccc cccc cccc cccc cccc ccccc ccccc ccccc ccccc
%c cc cc ccc ccc cccc cccc cccc cccc ccccc ccccc ccccc ccccc
%f  0.0000000  0.000000000  0.00000000000  0.000000000000000
%f  0.0000000  0.000000000  0.00000000000  0.000000000000000
%i    0    0    0    0      0      0      0      0         0
%i    0    0    0    0      0      0      0      0         0
/* IAC                                ULTRA-RAPID PREDICTION
/* S/V CLOCKS ARE ALIGNED TO GNSS TIME                      
/* G:C1WC2W R:C1PC2P E:C1XC5X C:C2IC6I J:C1CC2S             
/* PCV:IGS14_2148 OL/AL:FES2004  NONE     YN ORB:CoN CLK:CoN
*  2021 04 10  3 15  0.00000000
PC06 -18188.716165  37590.204945  -2870.639137    262.662797
PC07  -9733.667472  26979.108905  31278.273608   -104.745467
PC08 -23804.665265  20380.476888 -28284.455297   -893.203641
PC09  -9100.075687  39205.458632  12071.049696    606.808897
PC10   4502.083106  34232.872708  24688.354410    -58.775632
PC11  18826.520944 -17024.200786 -11498.538592   -818.346801
PC12  16564.648583    745.785004 -22410.544794    931.986797
PC13  -8309.127473  23459.556952 -33971.754656    215.375512
PC14  14077.155515  -7544.394068  22915.121909    428.855543
PC16 -15792.721207  38959.416666    269.859023   -775.869076
PC19  -7094.227265  16671.884627 -21197.092215    793.112044
PC20 -17875.065069  -1026.214867 -21375.094156   -950.580263
PC21  18464.164451  19028.624023   8764.357552   -933.103849
PC22   8083.489784  25264.171233  -8707.019355   -956.132970
PC23  -3284.276630 -16107.116369 -22550.467665   -885.962793
PC24  27764.859903  -1666.708416  -2097.837572   -808.928073
PC25  16567.209270 -13383.965904 -18028.078619   -934.903604
PC26  22539.369077   9070.555099  13688.309824    923.204910
PC27 -11817.933878 -10930.390258  22777.728581    512.901885
PC28   2738.822142 -23962.419264  14038.109430    -88.092923
PC29 -14771.730829  23490.893234   2908.910886    376.747348
PC30 -19057.667557   8662.022087  18434.825172    459.101269
PC32 -18577.132780 -18898.862978  -8706.795683   -935.713707
PC33   7135.910588 -16636.123658  21245.076158   -942.071744
PC34  19194.767701  -9356.674346 -17990.376704   -699.379814
PC35  -2106.234792  24162.608384 -13772.854477   -334.262201
PC36 -17214.790361  12855.877073  17828.345094   -732.852842
PC37 -21737.654581 -10036.681643 -14337.005557   -892.913723
PC38 -19112.626654  23430.780707 -29412.457318    141.311307
PC39 -11799.757834  40351.447572   2176.310063     30.184705
PC40   1761.503683  31753.615710  27763.458431    149.622907
PC41  -7865.874117 -25224.331830   9039.259343   -941.724224
PC42  18213.062735   1754.133283  21123.397393   -926.746853
PC43  15167.519434 -23197.101289  -3389.582400   -678.553106
PC44  12210.047574  10736.339009 -22685.390419    129.872638
PC45   3400.937084  15973.271289  22626.160158    409.742150
PC46 -27668.073511   2318.976878   2990.901443    323.315745
PE01  -1666.498892  17234.347631  24002.090643  -1083.736730
PE02   1515.392242 -17294.654395 -23982.565685    211.096454
PE03   3207.664737 -28554.924466   7083.118408   -418.422133
PE04   9533.126291  25719.237717  11137.761521   -746.935566
PE05  14250.646621 -14665.357014  21407.317338   -290.068769
PE07 -16861.837621  -7621.020781 -23091.791862   -523.665569
PE08  -9762.186986 -25488.032287 -11436.221992   6019.979139
PE09  16790.482118   7379.232092  23244.560609   5706.023844
PE11  23217.694837  -1248.018650 -18337.816280   6111.823559
PE12   7386.849442  14514.806924 -24713.903263   5267.363827
PE13 -22948.184857    988.879754  18668.643738    414.805387
PE14  -9190.317295  25763.386710   4783.082866  -1391.635269
PE15  -7391.324648 -14432.712094  24771.583399    820.250087
PE18  17343.163908 -17401.077784 -16059.965893  -1522.359745
PE19  -4645.215517  27763.023353  -9140.955046    248.424158
PE21 -20059.775646   5824.958000  20968.528278   -658.461031
PE24  27404.450863   9986.727827  -4980.858607   -838.929493
PE25  20193.090625  -5690.543696 -20877.861180   -530.615282
PE26 -24817.876855  16107.005877    819.077642   1942.352481
PE27 -27503.255222  -9380.224484   5665.753857     -7.928562
PE30 -17911.289891 -19279.896784 -13581.024651   3037.403142
PE31  18724.110935  18970.127076  12869.975016   -480.007466
PE33 -12478.934738  21324.332384 -16283.744388   -467.387076
PE36  24976.552042 -15823.046709  -1563.704155   -191.619633
PG01  -2262.370549  16066.802002 -21203.734934    720.197265
PG02  21622.322161 -14776.323158   5205.581227   -594.252447
PG03   7864.462568  19917.207584 -15862.805587   -132.496173
PG04   -846.757551  26022.753470   5108.522973   -191.006691
PG05   9002.153080 -12326.553302  21587.515632    -38.647054
PG06  25120.546076  -5250.405439  -6906.540059      6.142149
PG07  12995.894689  10849.417040  20914.005566    117.324173
PG08  -5630.455809  25518.462831   3701.304670    -16.937133
PG09   7643.290756  21033.807869  14228.335440   -337.775623
PG10 -23031.239782 -10356.348533  -8539.940224    -98.837202
PG11  -3487.195862  22125.174054 -14997.921593     25.299371
PG12  -3619.547162 -19592.355909 -17893.042488    -25.729310
PG13  13108.917605 -20405.307480  10541.856957    118.079182
PG14  22467.432408  11727.155516  -7996.167416     97.072218
PG15   2706.332842 -26029.270145   2857.852522   -157.231267
PG16 -12862.959935   8067.675362  21589.880500   -307.302838
PG17  13753.767722   5090.609279 -21717.577036    423.896302
PG18 -16046.375542  -8244.000491  19506.714087    351.606974
PG19  15692.990961  -4154.846760 -21284.819311    -14.970964
PG20 -14740.587950 -18607.256579  12133.971763    523.332919
PG21 -10266.793513  17667.806042 -15988.885434    109.831226
PG22   -913.893567  17064.609951 -20174.922303   -641.421144
PG23 -20506.518359 -16798.362791   1990.468980    114.290532
PG24   7006.909286 -18255.743036 -18043.525329     -0.040469
PG25 -15991.725848 -19779.078943  -8385.524352    115.622779
PG26 -19994.268684   1410.781095  17500.470837     70.057857
PG27 -12131.075497  18666.696425  14027.446524   -109.934232
PG29  -5794.626137 -21013.014648  15100.290442   -327.287956
PG30  23006.128966   1832.375646  13400.799854   -410.697013
PG31 -25668.221221   6612.505215  -4121.817482   -110.683333
PG32 -15027.071587  -2576.110102 -21643.782980     22.071976
PJ01 -19935.466370  24169.725683 -23647.764630   -363.905356
PJ02 -28106.293620  21310.150874  28000.820550      5.147652
PJ03 -32428.689758  25787.800951  12866.301388     -3.113749
PR01  10506.988593  23073.664590   2892.640403     77.654039
PR02  13159.343796   8346.135651  20221.879347    474.208524
PR03   7584.616270 -10056.258769  22236.902703     33.950395
PR04  -2297.601593 -22501.365590  11830.277612     81.720060
PR05 -10761.325199 -22539.653748  -5219.533471     69.711147
PR07  -7263.126812  10598.073363 -21986.335517    -42.543021
PR08   2352.865259  22542.778149 -11624.893472    -58.434685
PR09 -25154.199688  -4007.535999     49.778035    -12.819119
PR11  -2374.799331  10641.928675  23066.729555      1.203062
PR12  16345.052435  10688.845863  16416.978730    219.605811
PR13  25145.426284   4243.736309    555.568279    -53.204990
PR14  19081.598420  -4747.351980 -16249.266831     62.976681
PR15   2073.232141 -10798.326209 -23001.296273    104.458409
PR16 -17490.450201 -10215.650892 -15615.638257    -13.604051
PR17  18044.313823 -16709.921326  -6705.702257    414.955044
PR18  11387.854625 -20454.226268  10215.766168     72.684375
PR19   -384.545926 -13835.507799  21426.594891   -139.172675
PR20 -14631.428199   2543.585275  20730.790479    -46.996130
PR21 -17927.887918  17292.469204   5542.787920   -200.635757
PR22 -10725.213277  20169.573154 -11255.515043   -107.015050
PR24  15277.230387  -3170.130928 -20162.098632     38.265306
EOF
